$$SOE
2460721.500000000, A.D. 2025-Feb-15 00:00:00.0000, 1.376040991589808E+08, 3.749853486258193E+08, 2.311820839611486E+07,
2460728.500000000, A.D. 2025-Feb-22 00:00:00.0000, 1.280219443565737E+08, 3.809765611918737E+08, 2.654492745230493E+07,
2460735.500000000, A.D. 2025-Mar-01 00:00:00.0000, 1.183446401023730E+08, 3.866850133849095E+08, 2.995190897841167E+07,
2460742.500000000, A.D. 2025-Mar-08 00:00:00.0000, 1.085811299568824E+08, 3.921121911421405E+08, 3.333706086825782E+07,
2460749.500000000, A.D. 2025-Mar-15 00:00:00.0000, 9.874010565240109E+07, 3.972598492318254E+08, 3.669839853625548E+07,
2460756.500000000, A.D. 2025-Mar-22 00:00:00.0000, 8.883000168796597E+07, 4.021299900072652E+08, 4.003404260455149E+07,
2460763.500000000, A.D. 2025-Mar-29 00:00:00.0000, 7.885899263272782E+07, 4.067248407866724E+08, 4.334221607312882E+07,
2460770.500000000, A.D. 2025-Apr-05 00:00:00.0000, 6.883499333387476E+07, 4.110468330400982E+08, 4.662124123939645E+07,
2460777.500000000, A.D. 2025-Apr-12 00:00:00.0000, 5.876565997896172E+07, 4.150985835119377E+08, 4.986953658817279E+07,
2460784.500000000, A.D. 2025-Apr-19 00:00:00.0000, 4.865839170548176E+07, 4.188828764109186E+08, 5.308561362964812E+07,
2460791.500000000, A.D. 2025-Apr-26 00:00:00.0000, 3.852033291636315E+07, 4.224026464691621E+08, 5.626807367308736E+07,
2460798.500000000, A.D. 2025-May-03 00:00:00.0000, 2.835837630955971E+07, 4.256609628857713E+08, 5.941560455354232E+07,
2460805.500000000, A.D. 2025-May-10 00:00:00.0000, 1.817916655217195E+07, 4.286610141524472E+08, 6.252697733278188E+07,
2460812.500000000, A.D. 2025-May-17 00:00:00.0000, 7.989104544938227E+06, 4.314060937026300E+08, 6.560104298803014E+07,
2460819.500000000, A.D. 2025-May-24 00:00:00.0000, -2.205647632807591E+06, 4.338995863070682E+08, 6.863672908582321E+07,
2460826.500000000, A.D. 2025-May-31 00:00:00.0000, -1.239916075695972E+07, 4.361449555003821E+08, 7.163303644348842E+07,
2460833.500000000, A.D. 2025-Jun-07 00:00:00.0000, -2.258573194203589E+07, 4.381457332147617E+08, 7.458903592689717E+07,
2460840.500000000, A.D. 2025-Jun-14 00:00:00.0000, -3.275988000039531E+07, 4.399055109215140E+08, 7.750386555788356E+07,
2460847.500000000, A.D. 2025-Jun-21 00:00:00.0000, -4.291634151765047E+07, 4.414279289712068E+08, 8.037672756086260E+07,
2460854.500000000, A.D. 2025-Jun-28 00:00:00.0000, -5.305006457008824E+07, 4.427166658619173E+08, 8.320688521387658E+07,
2460861.500000000, A.D. 2025-Jul-05 00:00:00.0000, -6.315620164635003E+07, 4.437754295587053E+08, 8.599365982623273E+07,
2460868.500000000, A.D. 2025-Jul-12 00:00:00.0000, -7.323010300400582E+07, 4.446079500221000E+08, 8.873642789086804E+07,
2460875.500000000, A.D. 2025-Jul-19 00:00:00.0000, -8.326731030760600E+07, 4.452179723331414E+08, 9.143461835057932E+07,
2460882.500000000, A.D. 2025-Jul-26 00:00:00.0000, -9.326355037036377E+07, 4.456092503221273E+08, 9.408770995694917E+07,
2460889.500000000, A.D. 2025-Aug-02 00:00:00.0000, -1.032147289620887E+08, 4.457855406874130E+08, 9.669522871964261E+07,
2460896.500000000, A.D. 2025-Aug-09 00:00:00.0000, -1.131169246842527E+08, 4.457505975553359E+08, 9.925674544392261E+07,
2460903.500000000, A.D. 2025-Aug-16 00:00:00.0000, -1.229663828562022E+08, 4.455081673848469E+08, 1.017718733447262E+08,
2460910.500000000, A.D. 2025-Aug-23 00:00:00.0000, -1.327595091378649E+08, 4.450619842013594E+08, 1.042402657118716E+08,
2460917.500000000, A.D. 2025-Aug-30 00:00:00.0000, -1.424928625753880E+08, 4.444157658434554E+08, 1.066616136542896E+08,
2460924.500000000, A.D. 2025-Sep-06 00:00:00.0000, -1.521631495003330E+08, 4.435732121944743E+08, 1.090356441345971E+08,
2460931.500000000, A.D. 2025-Sep-13 00:00:00.0000, -1.617672199615807E+08, 4.425380028880675E+08, 1.113621182428294E+08,
2460938.500000000, A.D. 2025-Sep-20 00:00:00.0000, -1.713020634237624E+08, 4.413137928133342E+08, 1.136408292718979E+08,
2460945.500000000, A.D. 2025-Sep-27 00:00:00.0000, -1.807648026817255E+08, 4.399042085044147E+08, 1.158716007496974E+08,
2460952.500000000, A.D. 2025-Oct-04 00:00:00.0000, -1.901526880134111E+08, 4.383128459303228E+08, 1.180542846548351E+08,
2460959.500000000, A.D. 2025-Oct-11 00:00:00.0000, -1.994630919488560E+08, 4.365432687188947E+08, 1.201887597706572E+08,
2460966.500000000, A.D. 2025-Oct-18 00:00:00.0000, -2.086935043752366E+08, 4.345990065191410E+08, 1.222749301268429E+08,
2460973.500000000, A.D. 2025-Oct-25 00:00:00.0000, -2.178415278407706E+08, 4.324835534941194E+08, 1.243127235146077E+08,
2460980.500000000, A.D. 2025-Nov-01 00:00:00.0000, -2.269048730187500E+08, 4.302003669425271E+08, 1.263020900709306E+08,
2460987.500000000, A.D. 2025-Nov-08 00:00:00.0000, -2.358813542965471E+08, 4.277528660011757E+08, 1.282430009234515E+08,
2460994.500000000, A.D. 2025-Nov-15 00:00:00.0000, -2.447688853402874E+08, 4.251444303539793E+08, 1.301354468747322E+08,
2461001.500000000, A.D. 2025-Nov-22 00:00:00.0000, -2.535654742306726E+08, 4.223783991524069E+08, 1.319794371038149E+08,
2461008.500000000, A.D. 2025-Nov-29 00:00:00.0000, -2.622692183213483E+08, 4.194580712683885E+08, 1.337749979889190E+08,
2461015.500000000, A.D. 2025-Dec-06 00:00:00.0000, -2.708783010950853E+08, 4.163867067314544E+08, 1.355221722464293E+08,
2461022.500000000, A.D. 2025-Dec-13 00:00:00.0000, -2.793909905801862E+08, 4.131675259678959E+08, 1.372210180679492E+08,
2461029.500000000, A.D. 2025-Dec-20 00:00:00.0000, -2.878056358301899E+08, 4.098037078522311E+08, 1.388716080152212E+08,
2461036.500000000, A.D. 2025-Dec-27 00:00:00.0000, -2.961206625385751E+08, 4.062983891519344E+08, 1.404740279808154E+08,
2461043.500000000, A.D. 2026-Jan-03 00:00:00.0000, -3.043345692444207E+08, 4.026546647417421E+08, 1.420283762960758E+08,
2461050.500000000, A.D. 2026-Jan-10 00:00:00.0000, -3.124459240149660E+08, 3.988755879004908E+08, 1.435347629183515E+08,
2461057.500000000, A.D. 2026-Jan-17 00:00:00.0000, -3.204533613682753E+08, 3.949641705911041E+08, 1.449933086662249E+08,
2461064.500000000, A.D. 2026-Jan-24 00:00:00.0000, -3.283555793539513E+08, 3.909233837393006E+08, 1.464041444951007E+08,
2461071.500000000, A.D. 2026-Jan-31 00:00:00.0000, -3.361513367643745E+08, 3.867561574971783E+08, 1.477674108081486E+08,
2461078.500000000, A.D. 2026-Feb-07 00:00:00.0000, -3.438394504109473E+08, 3.824653814284241E+08, 1.490832567901218E+08,
2461085.500000000, A.D. 2026-Feb-14 00:00:00.0000, -3.514187922083945E+08, 3.780539045943862E+08, 1.503518397375611E+08,
2461092.500000000, A.D. 2026-Feb-21 00:00:00.0000, -3.588882856759118E+08, 3.735245361129562E+08, 1.515733243951476E+08,
2461099.500000000, A.D. 2026-Feb-28 00:00:00.0000, -3.662469029368642E+08, 3.688800473392852E+08, 1.527478824904805E+08,
2461106.500000000, A.D. 2026-Mar-07 00:00:00.0000, -3.734936642723840E+08, 3.641231737149315E+08, 1.538756924955934E+08,
2461113.500000000, A.D. 2026-Mar-14 00:00:00.0000, -3.806276374486086E+08, 3.592566139489389E+08, 1.549569391683587E+08,
2461120.500000000, A.D. 2026-Mar-21 00:00:00.0000, -3.876479350305854E+08, 3.542830294240047E+08, 1.559918129452413E+08,
2461127.500000000, A.D. 2026-Mar-28 00:00:00.0000, -3.945537116896260E+08, 3.492050448529034E+08, 1.569805094527327E+08,
2461134.500000000, A.D. 2026-Apr-04 00:00:00.0000, -4.013441621046987E+08, 3.440252492170920E+08, 1.579232291130383E+08,
2461141.500000000, A.D. 2026-Apr-11 00:00:00.0000, -4.080185191802688E+08, 3.387461966248865E+08, 1.588201767883314E+08,
2461148.500000000, A.D. 2026-Apr-18 00:00:00.0000, -4.145760524177269E+08, 3.333704070798000E+08, 1.596715614472708E+08,
2461155.500000000, A.D. 2026-Apr-25 00:00:00.0000, -4.210160663910996E+08, 3.279003671712943E+08, 1.604775958497509E+08,
2461162.500000000, A.D. 2026-May-02 00:00:00.0000, -4.273378992928880E+08, 3.223385306562051E+08, 1.612384962436866E+08,
2461169.500000000, A.D. 2026-May-09 00:00:00.0000, -4.335409214218746E+08, 3.166873188627477E+08, 1.619544820560154E+08,
2461176.500000000, A.D. 2026-May-16 00:00:00.0000, -4.396245332312943E+08, 3.109491210537022E+08, 1.626257755534678E+08,
2461183.500000000, A.D. 2026-May-23 00:00:00.0000, -4.455881628820097E+08, 3.051262957693075E+08, 1.632526015506811E+08,
2461190.500000000, A.D. 2026-May-30 00:00:00.0000, -4.514312653762400E+08, 2.992211734677123E+08, 1.638351873812867E+08,
2461197.500000000, A.D. 2026-Jun-06 00:00:00.0000, -4.571533235864400E+08, 2.932360571882117E+08, 1.643737628925433E+08,
2461204.500000000, A.D. 2026-Jun-13 00:00:00.0000, -4.627538475100408E+08, 2.871732214345316E+08, 1.648685601421275E+08,
2461211.500000000, A.D. 2026-Jun-20 00:00:00.0000, -4.682323722488111E+08, 2.810349122020348E+08, 1.653198130809430E+08,
2461218.500000000, A.D. 2026-Jun-27 00:00:00.0000, -4.735884564102408E+08, 2.748233478080081E+08, 1.657277573495010E+08,
2461225.500000000, A.D. 2026-Jul-04 00:00:00.0000, -4.788216809296256E+08, 2.685407197501358E+08, 1.660926301241341E+08,
2461232.500000000, A.D. 2026-Jul-11 00:00:00.0000, -4.839316480568673E+08, 2.621891934611903E+08, 1.664146699782445E+08,
2461239.500000000, A.D. 2026-Jul-18 00:00:00.0000, -4.889179804130710E+08, 2.557709089854026E+08, 1.666941167512862E+08,
2461246.500000000, A.D. 2026-Jul-25 00:00:00.0000, -4.937803200903559E+08, 2.492879815788438E+08, 1.669312114225472E+08,
2461253.500000000, A.D. 2026-Aug-01 00:00:00.0000, -4.985183277447444E+08, 2.427425021852710E+08, 1.671261959805160E+08,
2461260.500000000, A.D. 2026-Aug-08 00:00:00.0000, -5.031316814653235E+08, 2.361365377511445E+08, 1.672793132643906E+08,
2461267.500000000, A.D. 2026-Aug-15 00:00:00.0000, -5.076200750028317E+08, 2.294721318297887E+08, 1.673908067757392E+08,
2461274.500000000, A.D. 2026-Aug-22 00:00:00.0000, -5.119832161172202E+08, 2.227513066955570E+08, 1.674609206293207E+08,
2461281.500000000, A.D. 2026-Aug-29 00:00:00.0000, -5.162208273323821E+08, 2.159760655951791E+08, 1.674898997405569E+08,
2461288.500000000, A.D. 2026-Sep-05 00:00:00.0000, -5.203326469632295E+08, 2.091483922686916E+08, 1.674779898193437E+08,
$$EOE